{
  "norad_id": 64097,
  "name": "STARLINK-34174",
  "history": [
    {
      "epoch": "2026-03-28T20:21:44.285472",
      "apogee_km": 476.04718909888106,
      "perigee_km": 474.2539578724027,
      "latitude_deg": 50.45681950674765,
      "longitude_deg": -48.85079392022453,
      "semi_major_axis_km": 6853.287573485642,
      "eccentricity": 0.00013083,
      "inclination_deg": 53.1589,
      "raan_deg": 297.9292,
      "arg_perigee_deg": 81.7177,
      "mean_anomaly_deg": 278.3972,
      "mean_motion_rev_day": 15.30221601
    }
  ]
}