{"fetched_at":"2026-03-29T16:36:15Z","count":15609,"tles":[{"name":"STARLINK-34174","line1":"1 64097U 25110B   26087.84842923  .00026302  00000+0  89643-3 0  9993","line2":"2 64097  53.1589 297.9292 0001308  81.7177 278.3972 15.30221601 48812","category":"Starlink"}]}